IRIDIUM 66 [+]          
1 25289U 98021E   17361.49774611  .00000109  00000-0  31848-4 0  9991
2 25289  86.3969 142.9974 0002136  95.9413 264.2026 14.34215872 32710
IRIDIUM 67 [+]          
1 25290U 98021F   17361.50408763  .00000097  00000-0  27398-4 0  9998
2 25290  86.3970 143.1339 0002069  95.1436 264.9996 14.34216018 32732
IRIDIUM 68 [+]          
1 25291U 98021G   17361.51053559  .00000112  00000-0  32909-4 0  9991
2 25291  86.3972 143.2537 0002046  93.4156 266.7274 14.34213291 32718
IRIDIUM 69 [-]          
1 25319U 98026A   17361.53511584  .00000103  00000-0  27134-4 0  9990
2 25319  86.3999 164.4226 0002806  46.3812 313.7619 14.38709282 30839
IRIDIUM 71 [-]          
1 25320U 98026B   17361.53938771  .00000119  00000-0  31953-4 0  9994
2 25320  86.3981 160.2194 0004077  80.1177 280.0482 14.39125818 31273
IRIDIUM 70 [+]          
1 25342U 98032A   17361.54617198  .00000028  00000-0  28389-5 0  9992
2 25342  86.3976 143.4900 0002166  95.8890 317.7663 14.34215769 26814
IRIDIUM 72 [+]          
1 25343U 98032B   17361.45335409  .00000105  00000-0  30453-4 0  9995
2 25343  86.3970 143.1278 0002110  95.0773 265.0664 14.34215477 26806
IRIDIUM 73 [-]          
1 25344U 98032C   17361.42651650  .00000141  00000-0  31618-4 0  9996
2 25344  86.4440 121.3225 0002641 103.7122 256.4377 14.49085802 35532
IRIDIUM 75 [+]          
1 25346U 98032E   17361.52947019  .00000104  00000-0  30104-4 0  9994
2 25346  86.3973 143.3552 0002076  95.1018 265.0414 14.34215081 27381
IRIDIUM 3 [+]           
1 25431U 98048A   17361.59682398  .00000014  00000-0 -19985-5 0  9995
2 25431  86.3970 174.8957 0002102  87.8158 340.3642 14.34214010 13346
IRIDIUM 76 [+]          
1 25432U 98048B   17361.53291961  .00000069  00000-0  17748-4 0  9995
2 25432  86.3964 174.6704 0002065  96.9154 263.2277 14.34214265 13308
IRIDIUM 82 [-]          
1 25467U 98051A   17361.36001451  .00001245  00000-0  91131-4 0  9996
2 25467  86.4016 292.3704 0184407  62.9340 299.0570 14.89652375 15598
IRIDIUM 81 [+]          
1 25468U 98051B   17361.40078280  .00000172  00000-0  49570-4 0  9994
2 25468  86.4238 301.0433 0001973  90.7740 269.3684 14.38610078 10624
IRIDIUM 80 [+]          
1 25469U 98051C   17361.45292868  .00000168  00000-0  53064-4 0  9998
2 25469  86.3966 301.2857 0002282  67.7747  70.4725 14.34217008 10538
IRIDIUM 2 [-]           
1 25527U 98066A   17361.35691887  .00001341  00000-0  65707-4 0  9993
2 25527  85.5312 278.1683 0011396  97.6396 262.6139 15.17098881 47156
IRIDIUM 86 [+]          
1 25528U 98066B   17361.51144542  .00000172  00000-0  54507-4 0  9990
2 25528  86.3965 268.9392 0002985  76.9982 283.1547 14.34213800  7075
IRIDIUM 84 [+]          
1 25530U 98066D   17361.33385301  .00000032  00000-0  44737-5 0  9993
2 25530  86.3966 269.1815 0002042  83.9278 276.2151 14.34213310  4686
IRIDIUM 83 [+]          
1 25531U 98066E   17361.36557231  .00000179  00000-0  56853-4 0  9993
2 25531  86.3969 269.3016 0001973  83.5097 276.6323 14.34222528  2046
IRIDIUM 20 [+]          
1 25577U 98074A   17361.56460492  .00000053  00000-0  12017-4 0  9991
2 25577  86.3963 174.5760 0002072  91.6577 268.4856 14.34214803996158
IRIDIUM 11 [+]          
1 25578U 98074B   17361.59009817  .00000020  00000-0  12237-6 0  9995
2 25578  86.3966 174.7653 0001962  84.9477 341.2584 14.34214578  5121
IRIDIUM 14 [+]          
1 25777U 99032A   17361.54848657  .00000097  00000-0  27691-4 0  9991
2 25777  86.3973 143.1755 0002177  94.5671 265.5774 14.34215521982396
IRIDIUM 21 [+]          
1 25778U 99032B   17361.44700493  .00000113  00000-0  33382-4 0  9999
2 25778  86.3971 143.2342 0001983  98.4472 261.6949 14.34215870975811
IRIDIUM 91 [+]          
1 27372U 02005A   17361.56608508  .00000037  00000-0  62891-5 0  9995
2 27372  86.3969 206.3410 0002344  96.2931 319.1228 14.34224223839343
IRIDIUM 90 [B]          
1 27373U 02005B   17361.32113456  .00000211  00000-0  57150-4 0  9998
2 27373  86.4479 269.3120 0002212  86.1604 273.9850 14.42958045839205
IRIDIUM 94 [+]          
1 27374U 02005C   17361.53767074  .00000049  00000-0  10491-4 0  9999
2 27374  86.3964 174.9221 0002411 105.1329 312.2250 14.34216021843662
IRIDIUM 95 [+]          
1 27375U 02005D   17361.52359060 -.00000023  00000-0 -15172-4 0  9996
2 27375  86.3969 206.3739 0001931 109.9683 250.1721 14.34216481838626
IRIDIUM 96 [P]          
1 27376U 02005E   17361.36331023  .00023131  00000-0  52223-3 0  9998
2 27376  86.3873 238.1511 0294078 137.5075 224.9341 15.08501494843840
IRIDIUM 97 [+]          
1 27450U 02031A   17361.21622179  .00000126  00000-0  38107-4 0  9994
2 27450  86.3973 238.2015 0002129  88.2946 271.8493 14.34216560817897
IRIDIUM 98 [+]          
1 27451U 02031B   17361.36274827  .00000164  00000-0  51551-4 0  9994
2 27451  86.3960 301.4073 0002571  79.9122 280.2364 14.34217955818997
